{
  "type": "FeatureCollection",
  "features": [
    {
      "type": "Feature",
      "properties": {
        "norad_id": 34492,
        "name": "IRIDIUM 33 DEB",
        "group": "iridium-33-debris",
        "lat": 58.36168824454031,
        "lon": -15.80217293566556,
        "alt_km": 919.5289405393114,
        "timestamp": "2025-12-03T06:58:43.626682+00:00",
        "meta_object_name": "IRIDIUM 33 DEB",
        "meta_object_id": "1997-051GH",
        "meta_epoch": "2025-12-02T11:12:49.891104",
        "meta_mean_motion": 14.2523388,
        "meta_eccentricity": 0.01904279,
        "meta_inclination": 86.4708,
        "meta_ra_of_asc_node": 338.7817,
        "meta_arg_of_pericenter": 271.515,
        "meta_mean_anomaly": 243.1192,
        "meta_ephemeris_type": 0,
        "meta_classification_type": "U",
        "meta_norad_cat_id": 34492,
        "meta_element_set_no": 999,
        "meta_rev_at_epoch": 84912,
        "meta_bstar": 0.0077482505,
        "meta_mean_motion_dot": 0.00022079,
        "meta_mean_motion_ddot": 0,
        "tle_line1": "1 34492U 97051GH  25336.46724411  .00022079  00000+0  77483-2 0  9992",
        "tle_line2": "2 34492  86.4708 338.7817 0190427 271.5150 243.1192 14.25233880849120"
      },
      "geometry": {
        "type": "Point",
        "coordinates": [
          -15.80217293566556,
          58.36168824454031
        ]
      }
    },
    {
      "type": "Feature",
      "properties": {
        "norad_id": 34497,
        "name": "IRIDIUM 33 DEB",
        "group": "iridium-33-debris",
        "lat": -50.323357284551975,
        "lon": -119.06218893401832,
        "alt_km": 851.1647351995116,
        "timestamp": "2025-12-03T06:58:43.626692+00:00",
        "meta_object_name": "IRIDIUM 33 DEB",
        "meta_object_id": "1997-051GN",
        "meta_epoch": "2025-12-01T05:14:48.727392",
        "meta_mean_motion": 14.27398963,
        "meta_eccentricity": 0.0080081,
        "meta_inclination": 86.2784,
        "meta_ra_of_asc_node": 57.3223,
        "meta_arg_of_pericenter": 16.9295,
        "meta_mean_anomaly": 12.6117,
        "meta_ephemeris_type": 0,
        "meta_classification_type": "U",
        "meta_norad_cat_id": 34497,
        "meta_element_set_no": 999,
        "meta_rev_at_epoch": 86719,
        "meta_bstar": 0.00069242,
        "meta_mean_motion_dot": 1.774e-05,
        "meta_mean_motion_ddot": 0,
        "tle_line1": "1 34497U 97051GN  25335.21861953  .00001774  00000+0  69242-3 0  9996",
        "tle_line2": "2 34497  86.2784  57.3223 0080081  16.9295  12.6117 14.27398963867196"
      },
      "geometry": {
        "type": "Point",
        "coordinates": [
          -119.06218893401832,
          -50.323357284551975
        ]
      }
    },
    {
      "type": "Feature",
      "properties": {
        "norad_id": 34508,
        "name": "IRIDIUM 33 DEB",
        "group": "iridium-33-debris",
        "lat": 17.852846535178756,
        "lon": 107.81931337010631,
        "alt_km": 811.1932760978652,
        "timestamp": "2025-12-03T06:58:43.626702+00:00",
        "meta_object_name": "IRIDIUM 33 DEB",
        "meta_object_id": "1997-051GZ",
        "meta_epoch": "2025-12-02T19:12:23.760000",
        "meta_mean_motion": 14.38266528,
        "meta_eccentricity": 0.0065434,
        "meta_inclination": 86.3694,
        "meta_ra_of_asc_node": 106.8555,
        "meta_arg_of_pericenter": 205.2771,
        "meta_mean_anomaly": 154.5222,
        "meta_ephemeris_type": 0,
        "meta_classification_type": "U",
        "meta_norad_cat_id": 34508,
        "meta_element_set_no": 999,
        "meta_rev_at_epoch": 87166,
        "meta_bstar": 0.0022851,
        "meta_mean_motion_dot": 7.142e-05,
        "meta_mean_motion_ddot": 0,
        "tle_line1": "1 34508U 97051GZ  25336.80027500  .00007142  00000+0  22851-2 0  9996",
        "tle_line2": "2 34508  86.3694 106.8555 0065434 205.2771 154.5222 14.38266528871668"
      },
      "geometry": {
        "type": "Point",
        "coordinates": [
          107.81931337010631,
          17.852846535178756
        ]
      }
    },
    {
      "type": "Feature",
      "properties": {
        "norad_id": 34521,
        "name": "IRIDIUM 33 DEB",
        "group": "iridium-33-debris",
        "lat": 68.18329446188653,
        "lon": 43.80270679877901,
        "alt_km": 676.8102354771363,
        "timestamp": "2025-12-03T06:58:43.626713+00:00",
        "meta_object_name": "IRIDIUM 33 DEB",
        "meta_object_id": "1997-051HN",
        "meta_epoch": "2025-12-02T15:53:43.501056",
        "meta_mean_motion": 14.63214904,
        "meta_eccentricity": 0.0001208,
        "meta_inclination": 86.3816,
        "meta_ra_of_asc_node": 34.9839,
        "meta_arg_of_pericenter": 299.6067,
        "meta_mean_anomaly": 60.5024,
        "meta_ephemeris_type": 0,
        "meta_classification_type": "U",
        "meta_norad_cat_id": 34521,
        "meta_element_set_no": 999,
        "meta_rev_at_epoch": 88325,
        "meta_bstar": 0.0012417,
        "meta_mean_motion_dot": 6.415e-05,
        "meta_mean_motion_ddot": 0,
        "tle_line1": "1 34521U 97051HN  25336.66230904  .00006415  00000+0  12417-2 0  9998",
        "tle_line2": "2 34521  86.3816  34.9839 0001208 299.6067  60.5024 14.63214904883252"
      },
      "geometry": {
        "type": "Point",
        "coordinates": [
          43.80270679877901,
          68.18329446188653
        ]
      }
    },
    {
      "type": "Feature",
      "properties": {
        "norad_id": 34525,
        "name": "IRIDIUM 33 DEB",
        "group": "iridium-33-debris",
        "lat": -40.949683754661116,
        "lon": -125.96907777707133,
        "alt_km": 756.8485219327513,
        "timestamp": "2025-12-03T06:58:43.626723+00:00",
        "meta_object_name": "IRIDIUM 33 DEB",
        "meta_object_id": "1997-051HS",
        "meta_epoch": "2025-12-02T17:14:38.044032",
        "meta_mean_motion": 14.42863795,
        "meta_eccentricity": 0.0006425,
        "meta_inclination": 86.3736,
        "meta_ra_of_asc_node": 51.1204,
        "meta_arg_of_pericenter": 118.1402,
        "meta_mean_anomaly": 11.9978,
        "meta_ephemeris_type": 0,
        "meta_classification_type": "U",
        "meta_norad_cat_id": 34525,
        "meta_element_set_no": 999,
        "meta_rev_at_epoch": 87943,
        "meta_bstar": 0.0005123,
        "meta_mean_motion_dot": 1.729e-05,
        "meta_mean_motion_ddot": 0,
        "tle_line1": "1 34525U 97051HS  25336.71849588  .00001729  00000+0  51230-3 0  9992",
        "tle_line2": "2 34525  86.3736  51.1204 0006425 118.1402  11.9978 14.42863795879436"
      },
      "geometry": {
        "type": "Point",
        "coordinates": [
          -125.96907777707133,
          -40.949683754661116
        ]
      }
    },
    {
      "type": "Feature",
      "properties": {
        "norad_id": 34529,
        "name": "IRIDIUM 33 DEB",
        "group": "iridium-33-debris",
        "lat": -13.10820038626223,
        "lon": -139.71240032693404,
        "alt_km": 758.685775694903,
        "timestamp": "2025-12-03T06:58:43.626733+00:00",
        "meta_object_name": "IRIDIUM 33 DEB",
        "meta_object_id": "1997-051HW",
        "meta_epoch": "2025-12-02T10:04:51.751488",
        "meta_mean_motion": 14.40602399,
        "meta_eccentricity": 0.00035817,
        "meta_inclination": 86.365,
        "meta_ra_of_asc_node": 39.8104,
        "meta_arg_of_pericenter": 214.776,
        "meta_mean_anomaly": 145.3205,
        "meta_ephemeris_type": 0,
        "meta_classification_type": "U",
        "meta_norad_cat_id": 34529,
        "meta_element_set_no": 999,
        "meta_rev_at_epoch": 87993,
        "meta_bstar": 0.00017051095,
        "meta_mean_motion_dot": 5.63e-06,
        "meta_mean_motion_ddot": 0,
        "tle_line1": "1 34529U 97051HW  25336.42004342  .00000563  00000+0  17051-3 0  9993",
        "tle_line2": "2 34529  86.3650  39.8104 0003581 214.7760 145.3205 14.40602399879936"
      },
      "geometry": {
        "type": "Point",
        "coordinates": [
          -139.71240032693404,
          -13.10820038626223
        ]
      }
    },
    {
      "type": "Feature",
      "properties": {
        "norad_id": 34538,
        "name": "IRIDIUM 33 DEB",
        "group": "iridium-33-debris",
        "lat": -37.904827249479226,
        "lon": 6.7894993709788904,
        "alt_km": 737.3012427938274,
        "timestamp": "2025-12-03T06:58:43.626744+00:00",
        "meta_object_name": "IRIDIUM 33 DEB",
        "meta_object_id": "1997-051JF",
        "meta_epoch": "2025-12-02T19:44:57.372000",
        "meta_mean_motion": 14.4255264,
        "meta_eccentricity": 0.0034059,
        "meta_inclination": 86.2782,
        "meta_ra_of_asc_node": 9.8993,
        "meta_arg_of_pericenter": 1.2911,
        "meta_mean_anomaly": 52.7157,
        "meta_ephemeris_type": 0,
        "meta_classification_type": "U",
        "meta_norad_cat_id": 34538,
        "meta_element_set_no": 999,
        "meta_rev_at_epoch": 87613,
        "meta_bstar": 0.0011771,
        "meta_mean_motion_dot": 3.95e-05,
        "meta_mean_motion_ddot": 0,
        "tle_line1": "1 34538U 97051JF  25336.82288625  .00003950  00000+0  11771-2 0  9990",
        "tle_line2": "2 34538  86.2782   9.8993 0034059   1.2911  52.7157 14.42552640876136"
      },
      "geometry": {
        "type": "Point",
        "coordinates": [
          6.7894993709788904,
          -37.904827249479226
        ]
      }
    }
  ]
}